STARLINK-2628_new
1 18359C 21038G   21326.17900507  .00009564  00000-0  64072-3 0  3266
2 18359  53.0536 202.9327 0002028  68.5319 147.4645 15.06394044    10
STARLINK-2628_old
1 28359C 21038G   21325.10579425  .00009819  00000-0  65800-3 0  3251
2 28359  53.0535 207.7504 0001951  67.3357  85.4049 15.06380850    11
